UNKNOWN                 
1 82597U          26027.40455839  .00003892  00000+0  12926-2 0  9999
2 82597  66.7713  27.7311 0099786 275.4781  83.4945 14.35969737635536
UNKNOWN                 
1 82617U          26028.04521566  .00001168  00000+0  30932-3 0  9996
2 82617  74.0276 156.7205 0037133  88.5523 271.9890 14.49482518643539
UNKNOWN                 
1 82627U          26028.98604457  .00001179  00000+0  30592-2 0  9994
2 82627  82.4748 214.9369 0013218 332.9789 181.1470 13.16379884585044
UNKNOWN                 
1 82642U          26016.48428920  .00001285  00000+0  72749-3 0  9991
2 82642  98.9769 291.7951 0135542 138.9321 222.2147 14.07330205621029
UNKNOWN                 
1 82683U          26027.97796411  .00001900  00000+0  72937-3 0  9998
2 82683  98.1680  98.4548 0209373 260.4090  97.3376 14.20266037468839
UNKNOWN                 
1 82693U          26027.65448217  .00003988  00000+0  45828-2 0  9998
2 82693 100.5286   0.3914 0042515 274.0867  85.5416 13.69809461560041
UNKNOWN                 
1 82698U          26024.29750451  .00004505  00000+0  26198-2 0  9991
2 82698  61.6129  36.4926 0687239 305.4596  48.4099 13.29655420544034
UNKNOWN                 
1 82708U          26029.38947465  .00000852  00000+0  34002-2 0  9995
2 82708 102.1648 242.1626 0060706 192.6633 167.2936 12.90680018529668
UNKNOWN                 
1 82729U          26024.36496431  .00001539  00000+0  51979-2 0  9998
2 82729  67.9667  72.1913 0835114 341.5093  15.7149 12.17826377540393
UNKNOWN                 
1 82739U          26028.72190231  .00002338  00000+0  19413-2 0  9997
2 82739  99.0905 188.4633 0173977 167.7412 210.2241 13.82917473612600
UNKNOWN                 
1 82741U          26029.59780488  .00002837  00000+0  30415-2 0  9994
2 82741 102.8451  85.4483 0204954 160.4096 200.5055 13.66314634603617
UNKNOWN                 
1 82783U          26024.28635065 -.00000158  00000+0 -48254-3 0  9998
2 82783  90.3389  39.5271 0022527   1.8325 358.2881 13.09057227509922
