CCSDS_OMM_VERS = 2.0
CREATION_DATE  = 
ORIGINATOR     = 

OBJECT_NAME    = UNKNOWN
OBJECT_ID      = 
CENTER_NAME    = EARTH
REF_FRAME      = TEME
TIME_SYSTEM    = UTC
MEAN_ELEMENT_THEORY = SGP/SGP4

EPOCH          = 2026-01-27T09:42:33.844896
MEAN_MOTION    = 14.35969737
ECCENTRICITY   = .0099786
INCLINATION    = 66.7713
RA_OF_ASC_NODE = 27.7311
ARG_OF_PERICENTER = 275.4781
MEAN_ANOMALY   = 83.4945

EPHEMERIS_TYPE = 0
CLASSIFICATION_TYPE = U
NORAD_CAT_ID   = 82597
ELEMENT_SET_NO = 999
REV_AT_EPOCH   = 63553
BSTAR          = .12926E-2
MEAN_MOTION_DOT = .3892E-4
MEAN_MOTION_DDOT = 0

CCSDS_OMM_VERS = 2.0
CREATION_DATE  = 
ORIGINATOR     = 

OBJECT_NAME    = UNKNOWN
OBJECT_ID      = 
CENTER_NAME    = EARTH
REF_FRAME      = TEME
TIME_SYSTEM    = UTC
MEAN_ELEMENT_THEORY = SGP/SGP4

EPOCH          = 2026-01-28T01:05:06.633024
MEAN_MOTION    = 14.49482518
ECCENTRICITY   = .0037133
INCLINATION    = 74.0276
RA_OF_ASC_NODE = 156.7205
ARG_OF_PERICENTER = 88.5523
MEAN_ANOMALY   = 271.9890

EPHEMERIS_TYPE = 0
CLASSIFICATION_TYPE = U
NORAD_CAT_ID   = 82617
ELEMENT_SET_NO = 999
REV_AT_EPOCH   = 64353
BSTAR          = .30932E-3
MEAN_MOTION_DOT = .1168E-4
MEAN_MOTION_DDOT = 0

CCSDS_OMM_VERS = 2.0
CREATION_DATE  = 
ORIGINATOR     = 

OBJECT_NAME    = UNKNOWN
OBJECT_ID      = 
CENTER_NAME    = EARTH
REF_FRAME      = TEME
TIME_SYSTEM    = UTC
MEAN_ELEMENT_THEORY = SGP/SGP4

EPOCH          = 2026-01-28T23:39:54.250848
MEAN_MOTION    = 13.16379884
ECCENTRICITY   = .0013218
INCLINATION    = 82.4748
RA_OF_ASC_NODE = 214.9369
ARG_OF_PERICENTER = 332.9789
MEAN_ANOMALY   = 181.1470

EPHEMERIS_TYPE = 0
CLASSIFICATION_TYPE = U
NORAD_CAT_ID   = 82627
ELEMENT_SET_NO = 999
REV_AT_EPOCH   = 58504
BSTAR          = .30592E-2
MEAN_MOTION_DOT = .1179E-4
MEAN_MOTION_DDOT = 0

CCSDS_OMM_VERS = 2.0
CREATION_DATE  = 
ORIGINATOR     = 

OBJECT_NAME    = UNKNOWN
OBJECT_ID      = 
CENTER_NAME    = EARTH
REF_FRAME      = TEME
TIME_SYSTEM    = UTC
MEAN_ELEMENT_THEORY = SGP/SGP4

EPOCH          = 2026-01-16T11:37:22.586880
MEAN_MOTION    = 14.07330205
ECCENTRICITY   = .0135542
INCLINATION    = 98.9769
RA_OF_ASC_NODE = 291.7951
ARG_OF_PERICENTER = 138.9321
MEAN_ANOMALY   = 222.2147

EPHEMERIS_TYPE = 0
CLASSIFICATION_TYPE = U
NORAD_CAT_ID   = 82642
ELEMENT_SET_NO = 999
REV_AT_EPOCH   = 62102
BSTAR          = .72749E-3
MEAN_MOTION_DOT = .1285E-4
MEAN_MOTION_DDOT = 0

CCSDS_OMM_VERS = 2.0
CREATION_DATE  = 
ORIGINATOR     = 

OBJECT_NAME    = UNKNOWN
OBJECT_ID      = 
CENTER_NAME    = EARTH
REF_FRAME      = TEME
TIME_SYSTEM    = UTC
MEAN_ELEMENT_THEORY = SGP/SGP4

EPOCH          = 2026-01-27T23:28:16.099104
MEAN_MOTION    = 14.20266037
ECCENTRICITY   = .0209373
INCLINATION    = 98.1680
RA_OF_ASC_NODE = 98.4548
ARG_OF_PERICENTER = 260.4090
MEAN_ANOMALY   = 97.3376

EPHEMERIS_TYPE = 0
CLASSIFICATION_TYPE = U
NORAD_CAT_ID   = 82683
ELEMENT_SET_NO = 999
REV_AT_EPOCH   = 46883
BSTAR          = .72937E-3
MEAN_MOTION_DOT = .19E-4
MEAN_MOTION_DDOT = 0

CCSDS_OMM_VERS = 2.0
CREATION_DATE  = 
ORIGINATOR     = 

OBJECT_NAME    = UNKNOWN
OBJECT_ID      = 
CENTER_NAME    = EARTH
REF_FRAME      = TEME
TIME_SYSTEM    = UTC
MEAN_ELEMENT_THEORY = SGP/SGP4

EPOCH          = 2026-01-27T15:42:27.259488
MEAN_MOTION    = 13.69809461
ECCENTRICITY   = .0042515
INCLINATION    = 100.5286
RA_OF_ASC_NODE = 0.3914
ARG_OF_PERICENTER = 274.0867
MEAN_ANOMALY   = 85.5416

EPHEMERIS_TYPE = 0
CLASSIFICATION_TYPE = U
NORAD_CAT_ID   = 82693
ELEMENT_SET_NO = 999
REV_AT_EPOCH   = 56004
BSTAR          = .45828E-2
MEAN_MOTION_DOT = .3988E-4
MEAN_MOTION_DDOT = 0

CCSDS_OMM_VERS = 2.0
CREATION_DATE  = 
ORIGINATOR     = 

OBJECT_NAME    = UNKNOWN
OBJECT_ID      = 
CENTER_NAME    = EARTH
REF_FRAME      = TEME
TIME_SYSTEM    = UTC
MEAN_ELEMENT_THEORY = SGP/SGP4

EPOCH          = 2026-01-24T07:08:24.389664
MEAN_MOTION    = 13.29655420
ECCENTRICITY   = .0687239
INCLINATION    = 61.6129
RA_OF_ASC_NODE = 36.4926
ARG_OF_PERICENTER = 305.4596
MEAN_ANOMALY   = 48.4099

EPHEMERIS_TYPE = 0
CLASSIFICATION_TYPE = U
NORAD_CAT_ID   = 82698
ELEMENT_SET_NO = 999
REV_AT_EPOCH   = 54403
BSTAR          = .26198E-2
MEAN_MOTION_DOT = .4505E-4
MEAN_MOTION_DDOT = 0

CCSDS_OMM_VERS = 2.0
CREATION_DATE  = 
ORIGINATOR     = 

OBJECT_NAME    = UNKNOWN
OBJECT_ID      = 
CENTER_NAME    = EARTH
REF_FRAME      = TEME
TIME_SYSTEM    = UTC
MEAN_ELEMENT_THEORY = SGP/SGP4

EPOCH          = 2026-01-29T09:20:50.609760
MEAN_MOTION    = 12.90680018
ECCENTRICITY   = .0060706
INCLINATION    = 102.1648
RA_OF_ASC_NODE = 242.1626
ARG_OF_PERICENTER = 192.6633
MEAN_ANOMALY   = 167.2936

EPHEMERIS_TYPE = 0
CLASSIFICATION_TYPE = U
NORAD_CAT_ID   = 82708
ELEMENT_SET_NO = 999
REV_AT_EPOCH   = 52966
BSTAR          = .34002E-2
MEAN_MOTION_DOT = .852E-5
MEAN_MOTION_DDOT = 0

CCSDS_OMM_VERS = 2.0
CREATION_DATE  = 
ORIGINATOR     = 

OBJECT_NAME    = UNKNOWN
OBJECT_ID      = 
CENTER_NAME    = EARTH
REF_FRAME      = TEME
TIME_SYSTEM    = UTC
MEAN_ELEMENT_THEORY = SGP/SGP4

EPOCH          = 2026-01-24T08:45:32.916384
MEAN_MOTION    = 12.17826377
ECCENTRICITY   = .0835114
INCLINATION    = 67.9667
RA_OF_ASC_NODE = 72.1913
ARG_OF_PERICENTER = 341.5093
MEAN_ANOMALY   = 15.7149

EPHEMERIS_TYPE = 0
CLASSIFICATION_TYPE = U
NORAD_CAT_ID   = 82729
ELEMENT_SET_NO = 999
REV_AT_EPOCH   = 54039
BSTAR          = .51979E-2
MEAN_MOTION_DOT = .1539E-4
MEAN_MOTION_DDOT = 0

CCSDS_OMM_VERS = 2.0
CREATION_DATE  = 
ORIGINATOR     = 

OBJECT_NAME    = UNKNOWN
OBJECT_ID      = 
CENTER_NAME    = EARTH
REF_FRAME      = TEME
TIME_SYSTEM    = UTC
MEAN_ELEMENT_THEORY = SGP/SGP4

EPOCH          = 2026-01-28T17:19:32.359584
MEAN_MOTION    = 13.82917473
ECCENTRICITY   = .0173977
INCLINATION    = 99.0905
RA_OF_ASC_NODE = 188.4633
ARG_OF_PERICENTER = 167.7412
MEAN_ANOMALY   = 210.2241

EPHEMERIS_TYPE = 0
CLASSIFICATION_TYPE = U
NORAD_CAT_ID   = 82739
ELEMENT_SET_NO = 999
REV_AT_EPOCH   = 61260
BSTAR          = .19413E-2
MEAN_MOTION_DOT = .2338E-4
MEAN_MOTION_DDOT = 0

CCSDS_OMM_VERS = 2.0
CREATION_DATE  = 
ORIGINATOR     = 

OBJECT_NAME    = UNKNOWN
OBJECT_ID      = 
CENTER_NAME    = EARTH
REF_FRAME      = TEME
TIME_SYSTEM    = UTC
MEAN_ELEMENT_THEORY = SGP/SGP4

EPOCH          = 2026-01-29T14:20:50.341632
MEAN_MOTION    = 13.66314634
ECCENTRICITY   = .0204954
INCLINATION    = 102.8451
RA_OF_ASC_NODE = 85.4483
ARG_OF_PERICENTER = 160.4096
MEAN_ANOMALY   = 200.5055

EPHEMERIS_TYPE = 0
CLASSIFICATION_TYPE = U
NORAD_CAT_ID   = 82741
ELEMENT_SET_NO = 999
REV_AT_EPOCH   = 60361
BSTAR          = .30415E-2
MEAN_MOTION_DOT = .2837E-4
MEAN_MOTION_DDOT = 0

CCSDS_OMM_VERS = 2.0
CREATION_DATE  = 
ORIGINATOR     = 

OBJECT_NAME    = UNKNOWN
OBJECT_ID      = 
CENTER_NAME    = EARTH
REF_FRAME      = TEME
TIME_SYSTEM    = UTC
MEAN_ELEMENT_THEORY = SGP/SGP4

EPOCH          = 2026-01-24T06:52:20.696160
MEAN_MOTION    = 13.09057227
ECCENTRICITY   = .0022527
INCLINATION    = 90.3389
RA_OF_ASC_NODE = 39.5271
ARG_OF_PERICENTER = 1.8325
MEAN_ANOMALY   = 358.2881

EPHEMERIS_TYPE = 0
CLASSIFICATION_TYPE = U
NORAD_CAT_ID   = 82783
ELEMENT_SET_NO = 999
REV_AT_EPOCH   = 50992
BSTAR          = -.48254E-3
MEAN_MOTION_DOT = -.158E-5
MEAN_MOTION_DDOT = 0

